ORBCOMM FM20            
1 25416U 98046D   25015.58298824  .00001366  00000+0  50798-3 0  9991
2 25416  44.9928 183.6722 0001536 191.0969 168.9845 14.36605254382319
ORBCOMM FM16            
1 25417U 98046E   25015.54053747  .00002148  00000+0  74891-3 0  9990
2 25417  44.9916 177.3267 0005013 231.8854 128.1542 14.38061883382274
ORBCOMM FM15            
1 25418U 98046F   25015.75846914  .00001804  00000+0  64052-3 0  9996
2 25418  44.9948 181.0003 0004517 232.6919 127.3518 14.37743598382474
ORBCOMM FM14            
1 25419U 98046G   25015.81185852  .00001815  00000+0  64037-3 0  9996
2 25419  44.9937 179.3913 0003673 220.2166 139.8410 14.38043782382492
ORBCOMM FM13            
1 25420U 98046H   25015.52358406  .00001753  00000+0  63350-3 0  9991
2 25420  44.9959 187.3398 0005537 219.1809 140.8638 14.36970854381272
ORBCOMM FM21            
1 25475U 98053A   25015.08225315  .00001314  00000+0  48908-3 0  9997
2 25475  45.0084 274.2499 0000384 109.2976 250.7913 14.36753275375221
ORBCOMM FM22            
1 25476U 98053B   25015.08250593  .00001695  00000+0  60656-3 0  9990
2 25476  45.0067 270.2398 0002174 157.5507 202.5436 14.37609520375232
ORBCOMM FM23            
1 25477U 98053C   25015.16879132  .00001510  00000+0  55361-3 0  9999
2 25477  45.0084 276.1438 0001238 148.7742 211.3180 14.36871924375383
